NORAD_CAT_ID,OBJECT_NAME,OBJECT_TYPE,EPOCH,MEAN_MOTION,ECCENTRICITY,INCLINATION,RA_OF_ASC_NODE,ARG_OF_PERICENTER,MEAN_ANOMALY,BSTAR,MEAN_MOTION_DOT,MEAN_MOTION_DDOT,TLE_LINE0,TLE_LINE1,TLE_LINE2,SEMIMAJOR_AXIS,PERIOD,APOGEE,PERIGEE,DECAYED
52614.0,STARLINK-3982,PAYLOAD,2022-08-05 04:00:00,15.08839057,0.0001416999999999,53.2137,41.2697,70.9013,38.9332,-0.0019529,-0.00031233,0.0,0 STARLINK-3982,1 52614U 22052S   22217.16667824 -.00031233  00000-0 -19529-2 0  9995,2 52614  53.2137  41.2697 0001417  70.9013  38.9332 15.08839057 13214,6917.8830000000025,95.438,540.729,538.768,0.0
52614.0,STARLINK-3982,PAYLOAD,2022-08-05 12:00:00,15.08824083,0.0001396999999999,53.2139,39.7725,79.6604,41.7551,0.0013612,0.00021432,0.0,0 STARLINK-3982,1 52614U 22052S   22217.50001157  .00021432  00000-0  13612-2 0  9999,2 52614  53.2139  39.7725 0001397  79.6604  41.7551 15.08824083 13262,6917.929,95.439,540.76,538.828,0.0
52614.0,STARLINK-3982,PAYLOAD,2022-08-05 14:00:01,15.08841234,0.0001396999999999,53.214,39.3989,78.5934,135.7757,-0.00066605,-0.00010873,0.0,0 STARLINK-3982,1 52614U 22052S   22217.58335648 -.00010873  00000-0 -66605-3 0  9992,2 52614  53.2140  39.3989 0001397  78.5934 135.7757 15.08841234  1307,6917.877,95.437,540.7080000000002,538.775,0.0
52614.0,STARLINK-3982,PAYLOAD,2022-08-05 22:00:00,15.08812951,0.0001458,53.2137,37.904,68.359,157.546,0.0026331999999999,0.00041837,0.0,0 STARLINK-3982,1 52614U 22052S   22217.91667824  .00041837  00000-0  26332-2 0  9997,2 52614  53.2137  37.9040 0001458  68.3590 157.5460 15.08812951  1305,6917.9630000000025,95.439,540.837,538.819,0.0
52614.0,STARLINK-3982,PAYLOAD,2022-08-06 04:00:03,15.08851298,0.000139,53.2134,36.7804,73.0898,71.6208,-0.0018614999999999,-0.00029801,0.0,0 STARLINK-3982,1 52614U 22052S   22218.16670139 -.00029801  00000-0 -18615-2 0  9992,2 52614  53.2134  36.7804 0001390  73.0898  71.6208 15.08851298 13368,6917.846,95.437,540.672,538.749,0.0
52614.0,STARLINK-3982,PAYLOAD,2022-08-06 14:00:01,15.08855875,0.0001396999999999,53.2135,34.9098,79.2716,169.8033,-0.00088917,-0.00014417,0.0,0 STARLINK-3982,1 52614U 22052S   22218.58334491 -.00014417  00000-0 -88917-3 0  9996,2 52614  53.2135  34.9098 0001397  79.2716 169.8033 15.08855875  1300,6917.831999999999,95.437,540.663,538.73,0.0
52614.0,STARLINK-3982,PAYLOAD,2022-08-06 20:00:01,15.08837557,0.0001479,53.2133,33.7887,71.1319,96.6517,0.00069388,0.00010772,0.0,0 STARLINK-3982,1 52614U 22052S   22218.83334491  .00010772  00000-0  69388-3 0  9993,2 52614  53.2133  33.7887 0001479  71.1319  96.6517 15.08837557 13463,6917.888000000001,95.438,540.776,538.73,0.0
52614.0,STARLINK-3982,PAYLOAD,2022-08-06 20:50:58,15.08842224,0.0001391,53.2148,33.6284,68.5527,291.5614,4.8321e-05,4.81e-06,0.0,0 STARLINK-3982,1 52614U 22052S   22218.86873206  .00000481  00000-0  48321-4 0  9999,2 52614  53.2148  33.6284 0001391  68.5527 291.5614 15.08842224 13105,6917.874,95.437,540.701,538.776,0.0
52614.0,STARLINK-3982,PAYLOAD,2022-08-07 14:00:01,15.08841478,0.0001535,53.2131,30.4203,79.35,204.5124,-0.0010788,-0.00017417,0.0,0 STARLINK-3982,1 52614U 22052S   22219.58334491 -.00017417  00000-0 -10788-2 0  9990,2 52614  53.2131  30.4203 0001535  79.3500 204.5124 15.08841478  1303,6917.876,95.437,540.803,538.679,0.0
52614.0,STARLINK-3982,PAYLOAD,2022-08-07 20:00:01,15.08819743,0.0001594,53.2131,29.2992,71.2777,131.283,0.001626,0.0002566999999999,0.0,0 STARLINK-3982,1 52614U 22052S   22219.83334491  .00025670  00000-0  16260-2 0  9997,2 52614  53.2131  29.2992 0001594  71.2777 131.2830 15.08819743 13613,6917.941999999999,95.439,540.91,538.705,0.0
52614.0,STARLINK-3982,PAYLOAD,2022-08-07 22:00:00,15.08812056,0.0001571999999999,53.213,28.9252,69.9168,225.5417,0.0031704,0.00050492,0.0,0 STARLINK-3982,1 52614U 22052S   22219.91667824  .00050492  00000-0  31704-2 0  9995,2 52614  53.2130  28.9252 0001572  69.9168 225.5417 15.08812056  1302,6917.965999999999,95.439,540.918,538.743,0.0
52614.0,STARLINK-3982,PAYLOAD,2022-08-08 14:00:01,15.08874019,0.0001524,53.2131,25.9306,76.8064,241.9038,-0.0012613,-0.00020324,0.0,0 STARLINK-3982,1 52614U 22052S   22220.58335648 -.00020324  00000-0 -12613-2 0  9997,2 52614  53.2131  25.9306 0001524  76.8064 241.9038 15.08874019  1307,6917.776,95.435,540.696,538.587,0.0
52614.0,STARLINK-3982,PAYLOAD,2022-08-08 20:00:01,15.08855984,0.0001575,53.2131,24.8094,68.704,168.734,-0.00042699,-7.08e-05,0.0,0 STARLINK-3982,1 52614U 22052S   22220.83335648 -.00007080  00000-0 -42699-3 0  9997,2 52614  53.2131  24.8094 0001575  68.7040 168.7340 15.08855984 13764,6917.831999999999,95.437,540.786,538.607,0.0
52614.0,STARLINK-3982,PAYLOAD,2022-08-08 22:00:00,15.08844272,0.0001533,53.213,24.4353,67.2809,263.002,0.00081114,0.00012646,0.0,0 STARLINK-3982,1 52614U 22052S   22220.91667824  .00012646  00000-0  81114-3 0  9997,2 52614  53.2130  24.4353 0001533  67.2809 263.0020 15.08844272  1307,6917.8669999999975,95.437,540.793,538.672,0.0
52614.0,STARLINK-3982,PAYLOAD,2022-08-09 12:00:00,15.08843095,0.0001534,53.2134,21.8145,77.7861,182.7818,-0.0010157999999999,-0.00016419,0.0,0 STARLINK-3982,1 52614U 22052S   22221.50001157 -.00016419  00000-0 -10158-2 0  9997,2 52614  53.2134  21.8145 0001534  77.7861 182.7818 15.08843095 13864,6917.871,95.437,540.797,538.675,0.0
52614.0,STARLINK-3982,PAYLOAD,2022-08-09 14:00:01,15.08858496,0.0001521999999999,53.2135,21.4409,74.2162,279.2459,-0.0037342,-0.00059259,0.0,0 STARLINK-3982,1 52614U 22052S   22221.58334491 -.00059259  00000-0 -37342-2 0  9998,2 52614  53.2135  21.4409 0001522  74.2162 279.2459 15.08858496  1307,6917.824000000001,95.436,540.742,538.636,0.0
52614.0,STARLINK-3982,PAYLOAD,2022-08-09 22:00:00,15.08792911,0.0001496,53.2134,19.9454,65.1482,299.911,0.0030245,0.00048114,0.0,0 STARLINK-3982,1 52614U 22052S   22221.91667824  .00048114  00000-0  30245-2 0  9995,2 52614  53.2134  19.9454 0001496  65.1482 299.9110 15.08792911  1304,6918.024,95.441,540.924,538.854,0.0
52614.0,STARLINK-3982,PAYLOAD,2022-08-10 14:00:01,15.08844688,0.0001465999999999,53.214,16.9513,72.19800000000002,315.9905,-0.0014283,-0.0002295,0.0,0 STARLINK-3982,1 52614U 22052S   22222.58334491 -.00022950  00000-0 -14283-2 0  9996,2 52614  53.2140  16.9513 0001466  72.1980 315.9905 15.08844688  1302,6917.866,95.437,540.745,538.717,0.0
52614.0,STARLINK-3982,PAYLOAD,2022-08-10 20:00:01,15.08817656,0.0001516,53.214,15.8299,65.7564,241.1313,0.0021991999999999,0.00034864,0.0,0 STARLINK-3982,1 52614U 22052S   22222.83334491  .00034864  00000-0  21992-2 0  9994,2 52614  53.2140  15.8299 0001516  65.7564 241.1313 15.08817656 14079,6917.949000000001,95.439,540.862,538.765,0.0
52614.0,STARLINK-3982,PAYLOAD,2022-08-10 22:00:00,15.08830083,0.0001452,53.2138,15.4557,63.594,336.1864,0.00079538,0.0001239,0.0,0 STARLINK-3982,1 52614U 22052S   22222.91667824  .00012390  00000-0  79538-3 0  9992,2 52614  53.2138  15.4557 0001452  63.5940 336.1864 15.08830083  1309,6917.911,95.438,540.78,538.771,0.0
52614.0,STARLINK-3982,PAYLOAD,2022-08-11 04:00:00,15.08833744,0.0001331999999999,53.2142,14.3318,70.5048,247.9694,-0.0019504,-0.00031189,0.0,0 STARLINK-3982,1 52614U 22052S   22223.16667824 -.00031189  00000-0 -19504-2 0  9995,2 52614  53.2142  14.3318 0001332  70.5048 247.9694 15.08833744 14122,6917.9,95.438,540.686,538.8430000000002,0.0
52614.0,STARLINK-3982,PAYLOAD,2022-08-11 14:00:01,15.08838463,0.0001333,53.2144,12.4618,70.2315,352.7051,-0.0015942999999999,-0.0002557,0.0,0 STARLINK-3982,1 52614U 22052S   22223.58334491 -.00025570  00000-0 -15943-2 0  9992,2 52614  53.2144  12.4618 0001333  70.2315 352.7051 15.08838463  1302,6917.885,95.438,540.672,538.828,0.0
52614.0,STARLINK-3982,PAYLOAD,2022-08-11 20:00:01,15.08807661,0.0001388,53.2144,11.3403,63.959,277.6725,0.002905,0.00046207,0.0,0 STARLINK-3982,1 52614U 22052S   22223.83334491  .00046207  00000-0  29050-2 0  9992,2 52614  53.2144  11.3403 0001388  63.9590 277.6725 15.08807661 14220,6917.979,95.44,540.804,538.884,0.0
52614.0,STARLINK-3982,PAYLOAD,2022-08-12 12:00:00,15.08862747,0.0001262,53.2146,8.3461,73.5096,291.2920000000001,-0.00074582,-0.00012145,0.0,0 STARLINK-3982,1 52614U 22052S   22224.50001157 -.00012145  00000-0 -74582-3 0  9994,2 52614  53.2146   8.3461 0001262  73.5096 291.2920 15.08862747 14327,6917.811,95.436,540.549,538.803,0.0
52614.0,STARLINK-3982,PAYLOAD,2022-08-12 14:00:01,15.08864758,0.0001296999999999,53.2145,7.9725,69.9673,27.7385,-0.0013574,-0.0002184,0.0,0 STARLINK-3982,1 52614U 22052S   22224.58334491 -.00021840  00000-0 -13574-2 0  9997,2 52614  53.2145   7.9725 0001297  69.9673  27.7385 15.08864758  1307,6917.805,95.436,540.567,538.7719999999998,0.0
52614.0,STARLINK-3982,PAYLOAD,2022-08-12 22:00:01,15.08860242,0.0001363,53.2141,6.4765,62.8709,46.5113,-0.0012422,-0.00020014,0.0,0 STARLINK-3982,1 52614U 22052S   22224.91668981 -.00020014  00000-0 -12422-2 0  9991,2 52614  53.2141   6.4765 0001363  62.8709  46.5113 15.08860242  1309,6917.819,95.436,540.626,538.741,0.0
52614.0,STARLINK-3982,PAYLOAD,2022-08-13 14:00:01,15.08850143,0.0001291999999999,53.2142,3.4833,70.6911,61.82899999999999,-0.0040796999999999,-0.00064651,0.0,0 STARLINK-3982,1 52614U 22052S   22225.58334491 -.00064651  00000-0 -40797-2 0  9992,2 52614  53.2142   3.4833 0001292  70.6911  61.8290 15.08850143  1301,6917.849,95.437,540.6080000000002,538.821,0.0
52614.0,STARLINK-3982,PAYLOAD,2022-08-13 22:00:00,15.08811311,0.0001269,53.2138,1.9874,62.5506,81.5477,0.0008823,0.00013771,0.0,0 STARLINK-3982,1 52614U 22052S   22225.91667824  .00013771  00000-0  88230-3 0  9998,2 52614  53.2138   1.9874 0001269  62.5506  81.5477 15.08811311  1308,6917.968000000003,95.439,540.711,538.955,0.0
52614.0,STARLINK-3982,PAYLOAD,2022-08-14 12:00:00,15.088515300000005,0.0001225,53.214,359.36800000000005,71.3649,2.9928,-0.001322,-0.00021272,0.0,0 STARLINK-3982,1 52614U 22052S   22226.50001157 -.00021272  00000-0 -13220-2 0  9998,2 52614  53.2140 359.3680 0001225  71.3649   2.9928 15.08851530 14628,6917.845,95.437,540.558,538.863,0.0
